<?xml version="1.0" encoding="UTF-8"?>
<ndm xmlns:xsi="http://www.w3.org/2001/XMLSchema-instance" xsi:noNamespaceSchemaLocation="https://sanaregistry.org/r/ndmxml_unqualified/ndmxml-2.0.0-master-2.0.xsd">
<omm id="CCSDS_OMM_VERS" version="2.0">
<header><CREATION_DATE/><ORIGINATOR/></header><body><segment><metadata><OBJECT_NAME>IRIDIUM 166</OBJECT_NAME><OBJECT_ID>2018-061B</OBJECT_ID><CENTER_NAME>EARTH</CENTER_NAME><REF_FRAME>TEME</REF_FRAME><TIME_SYSTEM>UTC</TIME_SYSTEM><MEAN_ELEMENT_THEORY>SGP4</MEAN_ELEMENT_THEORY></metadata><data><meanElements><EPOCH>2024-05-13T10:08:45.885120</EPOCH><MEAN_MOTION>14.34216553</MEAN_MOTION><ECCENTRICITY>.0001987</ECCENTRICITY><INCLINATION>86.4005</INCLINATION><RA_OF_ASC_NODE>16.3407</RA_OF_ASC_NODE><ARG_OF_PERICENTER>82.8178</ARG_OF_PERICENTER><MEAN_ANOMALY>277.3243</MEAN_ANOMALY></meanElements><tleParameters><EPHEMERIS_TYPE>0</EPHEMERIS_TYPE><CLASSIFICATION_TYPE>U</CLASSIFICATION_TYPE><NORAD_CAT_ID>43570</NORAD_CAT_ID><ELEMENT_SET_NO>999</ELEMENT_SET_NO><REV_AT_EPOCH>30378</REV_AT_EPOCH><BSTAR>.12029E-3</BSTAR><MEAN_MOTION_DOT>.357E-5</MEAN_MOTION_DOT><MEAN_MOTION_DDOT>0</MEAN_MOTION_DDOT></tleParameters></data></segment></body></omm>
<omm id="CCSDS_OMM_VERS" version="2.0">
<header><CREATION_DATE/><ORIGINATOR/></header><body><segment><metadata><OBJECT_NAME>IRIDIUM 158</OBJECT_NAME><OBJECT_ID>2018-061C</OBJECT_ID><CENTER_NAME>EARTH</CENTER_NAME><REF_FRAME>TEME</REF_FRAME><TIME_SYSTEM>UTC</TIME_SYSTEM><MEAN_ELEMENT_THEORY>SGP4</MEAN_ELEMENT_THEORY></metadata><data><meanElements><EPOCH>2024-05-13T09:23:05.477568</EPOCH><MEAN_MOTION>14.34225589</MEAN_MOTION><ECCENTRICITY>.0002156</ECCENTRICITY><INCLINATION>86.4004</INCLINATION><RA_OF_ASC_NODE>16.3633</RA_OF_ASC_NODE><ARG_OF_PERICENTER>90.2592</ARG_OF_PERICENTER><MEAN_ANOMALY>269.8851</MEAN_ANOMALY></meanElements><tleParameters><EPHEMERIS_TYPE>0</EPHEMERIS_TYPE><CLASSIFICATION_TYPE>U</CLASSIFICATION_TYPE><NORAD_CAT_ID>43571</NORAD_CAT_ID><ELEMENT_SET_NO>999</ELEMENT_SET_NO><REV_AT_EPOCH>30374</REV_AT_EPOCH><BSTAR>.19963E-4</BSTAR><MEAN_MOTION_DOT>.76E-6</MEAN_MOTION_DOT><MEAN_MOTION_DDOT>0</MEAN_MOTION_DDOT></tleParameters></data></segment></body></omm>
<omm id="CCSDS_OMM_VERS" version="2.0">
<header><CREATION_DATE/><ORIGINATOR/></header><body><segment><metadata><OBJECT_NAME>IRIDIUM 165</OBJECT_NAME><OBJECT_ID>2018-061D</OBJECT_ID><CENTER_NAME>EARTH</CENTER_NAME><REF_FRAME>TEME</REF_FRAME><TIME_SYSTEM>UTC</TIME_SYSTEM><MEAN_ELEMENT_THEORY>SGP4</MEAN_ELEMENT_THEORY></metadata><data><meanElements><EPOCH>2024-05-13T09:59:37.726368</EPOCH><MEAN_MOTION>14.34217724</MEAN_MOTION><ECCENTRICITY>.0001983</ECCENTRICITY><INCLINATION>86.4005</INCLINATION><RA_OF_ASC_NODE>16.3843</RA_OF_ASC_NODE><ARG_OF_PERICENTER>89.6093</ARG_OF_PERICENTER><MEAN_ANOMALY>270.5330</MEAN_ANOMALY></meanElements><tleParameters><EPHEMERIS_TYPE>0</EPHEMERIS_TYPE><CLASSIFICATION_TYPE>U</CLASSIFICATION_TYPE><NORAD_CAT_ID>43572</NORAD_CAT_ID><ELEMENT_SET_NO>999</ELEMENT_SET_NO><REV_AT_EPOCH>30377</REV_AT_EPOCH><BSTAR>.11674E-4</BSTAR><MEAN_MOTION_DOT>.52E-6</MEAN_MOTION_DOT><MEAN_MOTION_DDOT>0</MEAN_MOTION_DDOT></tleParameters></data></segment></body></omm>
<omm id="CCSDS_OMM_VERS" version="2.0">
<header><CREATION_DATE/><ORIGINATOR/></header><body><segment><metadata><OBJECT_NAME>IRIDIUM 155</OBJECT_NAME><OBJECT_ID>2018-061E</OBJECT_ID><CENTER_NAME>EARTH</CENTER_NAME><REF_FRAME>TEME</REF_FRAME><TIME_SYSTEM>UTC</TIME_SYSTEM><MEAN_ELEMENT_THEORY>SGP4</MEAN_ELEMENT_THEORY></metadata><data><meanElements><EPOCH>2024-05-13T09:04:49.545408</EPOCH><MEAN_MOTION>14.34224055</MEAN_MOTION><ECCENTRICITY>.0002081</ECCENTRICITY><INCLINATION>86.4002</INCLINATION><RA_OF_ASC_NODE>16.3072</RA_OF_ASC_NODE><ARG_OF_PERICENTER>81.3223</ARG_OF_PERICENTER><MEAN_ANOMALY>278.8209</MEAN_ANOMALY></meanElements><tleParameters><EPHEMERIS_TYPE>0</EPHEMERIS_TYPE><CLASSIFICATION_TYPE>U</CLASSIFICATION_TYPE><NORAD_CAT_ID>43573</NORAD_CAT_ID><ELEMENT_SET_NO>999</ELEMENT_SET_NO><REV_AT_EPOCH>30373</REV_AT_EPOCH><BSTAR>.19998E-3</BSTAR><MEAN_MOTION_DOT>.58E-5</MEAN_MOTION_DOT><MEAN_MOTION_DDOT>0</MEAN_MOTION_DDOT></tleParameters></data></segment></body></omm>
<omm id="CCSDS_OMM_VERS" version="2.0">
<header><CREATION_DATE/><ORIGINATOR/></header><body><segment><metadata><OBJECT_NAME>IRIDIUM 154</OBJECT_NAME><OBJECT_ID>2018-061F</OBJECT_ID><CENTER_NAME>EARTH</CENTER_NAME><REF_FRAME>TEME</REF_FRAME><TIME_SYSTEM>UTC</TIME_SYSTEM><MEAN_ELEMENT_THEORY>SGP4</MEAN_ELEMENT_THEORY></metadata><data><meanElements><EPOCH>2024-05-13T10:17:53.711232</EPOCH><MEAN_MOTION>14.34216958</MEAN_MOTION><ECCENTRICITY>.0002419</ECCENTRICITY><INCLINATION>86.4002</INCLINATION><RA_OF_ASC_NODE>16.3823</RA_OF_ASC_NODE><ARG_OF_PERICENTER>86.6508</ARG_OF_PERICENTER><MEAN_ANOMALY>273.4965</MEAN_ANOMALY></meanElements><tleParameters><EPHEMERIS_TYPE>0</EPHEMERIS_TYPE><CLASSIFICATION_TYPE>U</CLASSIFICATION_TYPE><NORAD_CAT_ID>43574</NORAD_CAT_ID><ELEMENT_SET_NO>999</ELEMENT_SET_NO><REV_AT_EPOCH>30379</REV_AT_EPOCH><BSTAR>.32886E-3</BSTAR><MEAN_MOTION_DOT>.941E-5</MEAN_MOTION_DOT><MEAN_MOTION_DDOT>0</MEAN_MOTION_DDOT></tleParameters></data></segment></body></omm>
<omm id="CCSDS_OMM_VERS" version="2.0">
<header><CREATION_DATE/><ORIGINATOR/></header><body><segment><metadata><OBJECT_NAME>IRIDIUM 163</OBJECT_NAME><OBJECT_ID>2018-061G</OBJECT_ID><CENTER_NAME>EARTH</CENTER_NAME><REF_FRAME>TEME</REF_FRAME><TIME_SYSTEM>UTC</TIME_SYSTEM><MEAN_ELEMENT_THEORY>SGP4</MEAN_ELEMENT_THEORY></metadata><data><meanElements><EPOCH>2024-05-13T09:50:29.828544</EPOCH><MEAN_MOTION>14.34224030</MEAN_MOTION><ECCENTRICITY>.0002191</ECCENTRICITY><INCLINATION>86.4004</INCLINATION><RA_OF_ASC_NODE>16.3293</RA_OF_ASC_NODE><ARG_OF_PERICENTER>83.1170</ARG_OF_PERICENTER><MEAN_ANOMALY>277.0275</MEAN_ANOMALY></meanElements><tleParameters><EPHEMERIS_TYPE>0</EPHEMERIS_TYPE><CLASSIFICATION_TYPE>U</CLASSIFICATION_TYPE><NORAD_CAT_ID>43575</NORAD_CAT_ID><ELEMENT_SET_NO>999</ELEMENT_SET_NO><REV_AT_EPOCH>30376</REV_AT_EPOCH><BSTAR>.32929E-3</BSTAR><MEAN_MOTION_DOT>.942E-5</MEAN_MOTION_DOT><MEAN_MOTION_DDOT>0</MEAN_MOTION_DDOT></tleParameters></data></segment></body></omm>
<omm id="CCSDS_OMM_VERS" version="2.0">
<header><CREATION_DATE/><ORIGINATOR/></header><body><segment><metadata><OBJECT_NAME>IRIDIUM 156</OBJECT_NAME><OBJECT_ID>2018-061H</OBJECT_ID><CENTER_NAME>EARTH</CENTER_NAME><REF_FRAME>TEME</REF_FRAME><TIME_SYSTEM>UTC</TIME_SYSTEM><MEAN_ELEMENT_THEORY>SGP4</MEAN_ELEMENT_THEORY></metadata><data><meanElements><EPOCH>2024-05-13T09:13:57.799200</EPOCH><MEAN_MOTION>14.34222133</MEAN_MOTION><ECCENTRICITY>.000212</ECCENTRICITY><INCLINATION>86.4004</INCLINATION><RA_OF_ASC_NODE>16.3462</RA_OF_ASC_NODE><ARG_OF_PERICENTER>86.9342</ARG_OF_PERICENTER><MEAN_ANOMALY>273.2097</MEAN_ANOMALY></meanElements><tleParameters><EPHEMERIS_TYPE>0</EPHEMERIS_TYPE><CLASSIFICATION_TYPE>U</CLASSIFICATION_TYPE><NORAD_CAT_ID>43576</NORAD_CAT_ID><ELEMENT_SET_NO>999</ELEMENT_SET_NO><REV_AT_EPOCH>30375</REV_AT_EPOCH><BSTAR>.23934E-3</BSTAR><MEAN_MOTION_DOT>.69E-5</MEAN_MOTION_DOT><MEAN_MOTION_DDOT>0</MEAN_MOTION_DDOT></tleParameters></data></segment></body></omm>
<omm id="CCSDS_OMM_VERS" version="2.0">
<header><CREATION_DATE/><ORIGINATOR/></header><body><segment><metadata><OBJECT_NAME>IRIDIUM 164</OBJECT_NAME><OBJECT_ID>2018-061J</OBJECT_ID><CENTER_NAME>EARTH</CENTER_NAME><REF_FRAME>TEME</REF_FRAME><TIME_SYSTEM>UTC</TIME_SYSTEM><MEAN_ELEMENT_THEORY>SGP4</MEAN_ELEMENT_THEORY></metadata><data><meanElements><EPOCH>2024-05-13T10:27:01.642752</EPOCH><MEAN_MOTION>14.34223347</MEAN_MOTION><ECCENTRICITY>.0002331</ECCENTRICITY><INCLINATION>86.4004</INCLINATION><RA_OF_ASC_NODE>16.3533</RA_OF_ASC_NODE><ARG_OF_PERICENTER>93.2454</ARG_OF_PERICENTER><MEAN_ANOMALY>266.9008</MEAN_ANOMALY></meanElements><tleParameters><EPHEMERIS_TYPE>0</EPHEMERIS_TYPE><CLASSIFICATION_TYPE>U</CLASSIFICATION_TYPE><NORAD_CAT_ID>43577</NORAD_CAT_ID><ELEMENT_SET_NO>999</ELEMENT_SET_NO><REV_AT_EPOCH>30380</REV_AT_EPOCH><BSTAR>.31436E-3</BSTAR><MEAN_MOTION_DOT>.9E-5</MEAN_MOTION_DOT><MEAN_MOTION_DDOT>0</MEAN_MOTION_DDOT></tleParameters></data></segment></body></omm>

</ndm>
