IRIDIUM 166             
1 43570U 18061B   24134.42275330  .00000357  00000+0  12029-3 0  9996
2 43570  86.4005  16.3407 0001987  82.8178 277.3243 14.34216553303787
IRIDIUM 158             
1 43571U 18061C   24134.39103562  .00000076  00000+0  19963-4 0  9993
2 43571  86.4004  16.3633 0002156  90.2592 269.8851 14.34225589303746
IRIDIUM 165             
1 43572U 18061D   24134.41640887  .00000052  00000+0  11674-4 0  9998
2 43572  86.4005  16.3843 0001983  89.6093 270.5330 14.34217724303772
IRIDIUM 155             
1 43573U 18061E   24134.37835122  .00000580  00000+0  19998-3 0  9994
2 43573  86.4002  16.3072 0002081  81.3223 278.8209 14.34224055303735
IRIDIUM 154             
1 43574U 18061F   24134.42909388  .00000941  00000+0  32886-3 0  9999
2 43574  86.4002  16.3823 0002419  86.6508 273.4965 14.34216958303798
IRIDIUM 163             
1 43575U 18061G   24134.41006746  .00000942  00000+0  32929-3 0  9994
2 43575  86.4004  16.3293 0002191  83.1170 277.0275 14.34224030303767
IRIDIUM 156             
1 43576U 18061H   24134.38469675  .00000690  00000+0  23934-3 0  9991
2 43576  86.4004  16.3462 0002120  86.9342 273.2097 14.34222133303751
IRIDIUM 164             
1 43577U 18061J   24134.43543568  .00000900  00000+0  31436-3 0  9992
2 43577  86.4004  16.3533 0002331  93.2454 266.9008 14.34223347303805
